ONEWEB-0522             
1 54140U 22138AD  26185.58034951  .00000097  00000+0  21115-3 0  9995
2 54140  87.9194 301.4944 0001853 104.2636 255.8703 13.19726221179100
ONEWEB-0523             
1 54141U 22138AE  26185.68065277  .00000036  00000+0  57727-4 0  9994
2 54141  87.9199 270.9551 0002579  85.0157 275.1271 13.20772596181612
ONEWEB-0524             
1 54142U 22138AF  26185.67055623  .00000066  00000+0  12942-3 0  9990
2 54142  87.9195 270.9540 0002917 100.9992 259.1470 13.20772313181617
ONEWEB-0525             
1 54143U 22138AG  26185.59928648  .00000066  00000+0  13177-3 0  9999
2 54143  87.9190 301.4977 0001963 112.0483 248.0858 13.19726498179127
ONEWEB-0526             
1 54144U 22138AH  26185.70826727  .00000029  00000+0  40184-4 0  9996
2 54144  87.9193 301.4768 0002016 104.9099 255.2257 13.19727069179119
ONEWEB-0529             
1 54145U 22138AJ  26185.71144777  .00000081  00000+0  17046-3 0  9994
2 54145  87.9187 301.4839 0001956 107.8634 252.2713 13.19725106179137
ONEWEB-0531             
1 54146U 22138AK  26185.65708605  .00000075  00000+0  15300-3 0  9998
2 54146  87.9193 270.9542 0002787  88.8221 271.3231 13.20772889181614
ONEWEB-0535             
1 54147U 22138AL  26185.74460488  .00000014  00000+0  18785-5 0  9998
2 54147  87.9191 301.4630 0002053  91.9644 268.1724 13.19726156179152
ONEWEB-0536             
1 54148U 22138AM  26185.49210307  .00000131  00000+0  28946-3 0  9992
2 54148  87.9182 271.0076 0002985  90.4913 269.6562 13.20772927181581
ONEWEB-0527             
1 54642U 22166A   26185.58682377  .00000027  00000+0  32725-4 0  9997
2 54642  87.9240 240.5349 0002031  99.2931 260.8433 13.21827042173837
ONEWEB-0528             
1 54643U 22166B   26185.58765488  .00000057  00000+0  10722-3 0  9998
2 54643  87.9240 240.5372 0002031 104.0230 256.1129 13.21826067173848
ONEWEB-0539             
1 54644U 22166C   26185.85257488  .00000023  00000+0  23063-4 0  9991
2 54644  87.9249 240.4572 0001877  94.8606 265.2743 13.21827714173875
ONEWEB-0540             
1 54645U 22166D   26185.85944021 -.00000184  00000+0 -47776-3 0  9994
2 54645  87.9233 240.4848 0001978  94.1339 266.0021 13.21825783173864
ONEWEB-0542             
1 54646U 22166E   26185.86268939  .00000024  00000+0  26444-4 0  9994
2 54646  87.9252 240.4544 0001842  92.3873 267.7472 13.21825251173871
ONEWEB-0545             
1 54647U 22166F   26185.90306397 -.00000025  00000+0 -92828-4 0  9993
2 54647  87.9240 240.4567 0001648  82.2472 277.8849 13.21825554173844
ONEWEB-0580             
1 54648U 22166G   26185.57500610  .00000053  00000+0  96825-4 0  9991
2 54648  87.9240 240.5218 0001965  85.5545 274.5813 13.21823199173846
ONEWEB-0582             
1 54649U 22166H   26185.38998891  .00000075  00000+0  14908-3 0  9998
2 54649  87.9240 240.5509 0001830  85.8240 274.3103 13.21827975173796
ONEWEB-0583             
1 54650U 22166J   26185.85596145  .00000086  00000+0  17728-3 0  9993
2 54650  87.9236 240.4815 0001955  94.6519 265.4838 13.21825379173867
ONEWEB-0584             
1 54651U 22166K   26185.42195039  .00000049  00000+0  87662-4 0  9998
2 54651  87.9238 240.5531 0002044  94.6702 265.4665 13.21824150173796
ONEWEB-0585             
1 54652U 22166L   26185.59689568  .00000052  00000+0  94495-4 0  9998
2 54652  87.9242 240.5060 0002137 101.0482 259.0892 13.21827838173821
ONEWEB-0586             
1 54653U 22166M   26185.91315602  .00000000  00000+0 -31849-4 0  9998
2 54653  87.9241 240.4682 0001898  94.9952 265.1398 13.21825160173864
ONEWEB-0587             
1 54654U 22166N   26185.84755347 -.00000010  00000+0 -56313-4 0  9990
2 54654  87.9251 240.4566 0002316 103.4538 256.6854 13.21824937174010
ONEWEB-0589             
1 54655U 22166P   26185.90979174 -.00000078  00000+0 -22098-3 0  9990
2 54655  87.9236 240.4541 0001791  72.7960 287.3370 13.21825333173889
ONEWEB-0590             
1 54656U 22166Q   26185.85917473  .00000083  00000+0  17041-3 0  9995
2 54656  87.9242 240.4560 0002397  89.6426 270.4983 13.21825486173865
ONEWEB-0591             
1 54657U 22166R   26185.56830495  .00000057  00000+0  10617-3 0  9995
2 54657  87.9238 240.5273 0002111  95.1689 264.9685 13.21827490173853
ONEWEB-0592             
1 54658U 22166S   26185.42025631  .00000036  00000+0  56766-4 0  9992
2 54658  87.9251 240.5367 0002028  97.0048 263.1317 13.21823841173714
ONEWEB-0593             
1 54659U 22166T   26185.59354139  .00000015  00000+0  37542-5 0  9998
2 54659  87.9241 240.5124 0001847  97.2657 262.8686 13.21826104173845
ONEWEB-0594             
1 54660U 22166U   26185.91649563  .00000098  00000+0  20663-3 0  9999
2 54660  87.9239 240.4643 0002118 101.8785 258.2587 13.21825111173908
ONEWEB-0595             
1 54661U 22166V   26185.43878711  .00000009  00000+0 -10494-4 0  9991
2 54661  87.9248 240.5413 0002253 100.6811 259.4577 13.21825537173816
ONEWEB-0596             
1 54662U 22166W   26185.41353790  .00000095  00000+0  19860-3 0  9994
2 54662  87.9245 240.5569 0002183  98.1671 261.9711 13.21827969173812
