OBJECT_NAME,OBJECT_ID,EPOCH,MEAN_MOTION,ECCENTRICITY,INCLINATION,RA_OF_ASC_NODE,ARG_OF_PERICENTER,MEAN_ANOMALY,EPHEMERIS_TYPE,CLASSIFICATION_TYPE,NORAD_CAT_ID,ELEMENT_SET_NO,REV_AT_EPOCH,BSTAR,MEAN_MOTION_DOT,MEAN_MOTION_DDOT
ONEWEB-0522,2022-138AD,2026-07-04T13:55:42.197664,13.19726221,.00018534,87.9194,301.4944,104.2636,255.8703,0,U,54140,999,17910,.21114944E-3,.97E-6,0
ONEWEB-0523,2022-138AE,2026-07-04T16:20:08.399328,13.20772596,.00025794,87.9199,270.9551,85.0157,275.1271,0,U,54141,999,18161,.57727028E-4,.36E-6,0
ONEWEB-0524,2022-138AF,2026-07-04T16:05:36.058272,13.20772313,.00029172,87.9195,270.9540,100.9992,259.1470,0,U,54142,999,18161,.12941931E-3,.66E-6,0
ONEWEB-0525,2022-138AG,2026-07-04T14:22:58.351872,13.19726498,.00019635,87.9190,301.4977,112.0483,248.0858,0,U,54143,999,17912,.13176951E-3,.66E-6,0
ONEWEB-0526,2022-138AH,2026-07-04T16:59:54.292128,13.19727069,.00020164,87.9193,301.4768,104.9099,255.2257,0,U,54144,999,17911,.40183725E-4,.29E-6,0
ONEWEB-0529,2022-138AJ,2026-07-04T17:04:29.087328,13.19725106,.00019562,87.9187,301.4839,107.8634,252.2713,0,U,54145,999,17913,.17045655E-3,.81E-6,0
ONEWEB-0531,2022-138AK,2026-07-04T15:46:12.234720,13.20772889,.00027879,87.9193,270.9542,88.8221,271.3231,0,U,54146,999,18161,.15300498E-3,.75E-6,0
ONEWEB-0535,2022-138AL,2026-07-04T17:52:13.861632,13.19726156,.00020534,87.9191,301.4630,91.9644,268.1724,0,U,54147,999,17915,.1878529E-5,.14E-6,0
ONEWEB-0536,2022-138AM,2026-07-04T11:48:37.705248,13.20772927,.00029852,87.9182,271.0076,90.4913,269.6562,0,U,54148,999,18158,.28946026E-3,.131E-5,0
ONEWEB-0527,2022-166A,2026-07-04T14:05:01.573728,13.21827042,.00020316,87.9240,240.5349,99.2931,260.8433,0,U,54642,999,17383,.32725274E-4,.27E-6,0
ONEWEB-0528,2022-166B,2026-07-04T14:06:13.381632,13.21826067,.00020311,87.9240,240.5372,104.0230,256.1129,0,U,54643,999,17384,.10722487E-3,.57E-6,0
ONEWEB-0539,2022-166C,2026-07-04T20:27:42.469632,13.21827714,.00018773,87.9249,240.4572,94.8606,265.2743,0,U,54644,999,17387,.23062909E-4,.23E-6,0
ONEWEB-0540,2022-166D,2026-07-04T20:37:35.634144,13.21825783,.00019786,87.9233,240.4848,94.1339,266.0021,0,U,54645,999,17386,-.47776354E-3,-.184E-5,0
ONEWEB-0542,2022-166E,2026-07-04T20:42:16.363296,13.21825251,.00018426,87.9252,240.4544,92.3873,267.7472,0,U,54646,999,17387,.26444189E-4,.24E-6,0
ONEWEB-0545,2022-166F,2026-07-04T21:40:24.727008,13.21825554,.00016489,87.9240,240.4567,82.2472,277.8849,0,U,54647,999,17384,-.9282789E-4,-.25E-6,0
ONEWEB-0580,2022-166G,2026-07-04T13:48:00.527040,13.21823199,.00019653,87.9240,240.5218,85.5545,274.5813,0,U,54648,999,17384,.96825383E-4,.53E-6,0
ONEWEB-0582,2022-166H,2026-07-04T09:21:35.041824,13.21827975,.000183,87.9240,240.5509,85.8240,274.3103,0,U,54649,999,17379,.14907509E-3,.75E-6,0
ONEWEB-0583,2022-166J,2026-07-04T20:32:35.069280,13.21825379,.00019556,87.9236,240.4815,94.6519,265.4838,0,U,54650,999,17386,.17728201E-3,.86E-6,0
ONEWEB-0584,2022-166K,2026-07-04T10:07:36.513696,13.21824150,.00020441,87.9238,240.5531,94.6702,265.4665,0,U,54651,999,17379,.87662292E-4,.49E-6,0
ONEWEB-0585,2022-166L,2026-07-04T14:19:31.786752,13.21827838,.00021371,87.9242,240.5060,101.0482,259.0892,0,U,54652,999,17382,.94494795E-4,.52E-6,0
ONEWEB-0586,2022-166M,2026-07-04T21:54:56.680128,13.21825160,.00018989,87.9241,240.4682,94.9952,265.1398,0,U,54653,999,17386,-.31848869E-4,0,0
ONEWEB-0587,2022-166N,2026-07-04T20:20:28.619808,13.21824937,.00023165,87.9251,240.4566,103.4538,256.6854,0,U,54654,999,17401,-.56312677E-4,-.1E-6,0
ONEWEB-0589,2022-166P,2026-07-04T21:50:06.006336,13.21825333,.00017913,87.9236,240.4541,72.7960,287.3370,0,U,54655,999,17388,-.22098031E-3,-.78E-6,0
ONEWEB-0590,2022-166Q,2026-07-04T20:37:12.696672,13.21825486,.00023979,87.9242,240.4560,89.6426,270.4983,0,U,54656,999,17386,.17040502E-3,.83E-6,0
ONEWEB-0591,2022-166R,2026-07-04T13:38:21.547680,13.21827490,.00021112,87.9238,240.5273,95.1689,264.9685,0,U,54657,999,17385,.10617411E-3,.57E-6,0
ONEWEB-0592,2022-166S,2026-07-04T10:05:10.145184,13.21823841,.00020289,87.9251,240.5367,97.0048,263.1317,0,U,54658,999,17371,.56766001E-4,.36E-6,0
ONEWEB-0593,2022-166T,2026-07-04T14:14:41.976096,13.21826104,.0001847,87.9241,240.5124,97.2657,262.8686,0,U,54659,999,17384,.375422E-5,.15E-6,0
ONEWEB-0594,2022-166U,2026-07-04T21:59:45.222432,13.21825111,.00021188,87.9239,240.4643,101.8785,258.2587,0,U,54660,999,17390,.20663165E-3,.98E-6,0
ONEWEB-0595,2022-166V,2026-07-04T10:31:51.206304,13.21825537,.00022534,87.9248,240.5413,100.6811,259.4577,0,U,54661,999,17381,-.10493902E-4,.9E-7,0
ONEWEB-0596,2022-166W,2026-07-04T09:55:29.674560,13.21827969,.00021839,87.9245,240.5569,98.1671,261.9711,0,U,54662,999,17381,.19859663E-3,.95E-6,0
